NORAD_CAT_ID,OBJECT_NAME,OBJECT_TYPE,EPOCH,MEAN_MOTION,ECCENTRICITY,INCLINATION,RA_OF_ASC_NODE,ARG_OF_PERICENTER,MEAN_ANOMALY,BSTAR,MEAN_MOTION_DOT,MEAN_MOTION_DDOT,TLE_LINE0,TLE_LINE1,TLE_LINE2,SEMIMAJOR_AXIS,PERIOD,APOGEE,PERIGEE,DECAYED
55644.0,STARLINK-5502,PAYLOAD,2024-07-19 05:04:46,14.98331861,0.0003174,70.0007,253.4937,269.5879,90.4916,0.00021738,2.502e-05,0.0,0 STARLINK-5502,1 55644U 23021S   24201.21164437  .00002502  00000-0  21738-3 0  9992,2 55644  70.0007 253.4937 0003174 269.5879  90.4916 14.98331861 78844,6950.187,96.107,574.258,569.846,0.0
55644.0,STARLINK-5502,PAYLOAD,2024-07-19 13:05:26,14.98330152,0.0003174,70.0003,252.6517,267.8515,92.228,0.00012846,1.44e-05,0.0,0 STARLINK-5502,1 55644U 23021S   24201.54544473  .00001440  00000-0  12846-3 0  9990,2 55644  70.0003 252.6517 0003174 267.8515  92.2280 14.98330152 79198,6950.192,96.107,574.263,569.851,0.0
55644.0,STARLINK-5502,PAYLOAD,2024-07-19 21:06:06,14.9833288,0.0003292,70.0,251.8096,268.2298,91.8484,0.00016227,1.844e-05,0.0,0 STARLINK-5502,1 55644U 23021S   24201.87924310  .00001844  00000-0  16227-3 0  9993,2 55644  70.0000 251.8096 0003292 268.2298  91.8484 14.98332880 79249,6950.184,96.107,574.337,569.761,0.0
55644.0,STARLINK-5502,PAYLOAD,2024-07-20 05:06:46,14.98333861,0.0003331,69.9997,250.968,268.4707,91.6071,0.00015971,1.813e-05,0.0,0 STARLINK-5502,1 55644U 23021S   24202.21304212  .00001813  00000-0  15971-3 0  9996,2 55644  69.9997 250.9680 0003331 268.4707  91.6071 14.98333861 78992,6950.181,96.107,574.361,569.731,0.0
55644.0,STARLINK-5502,PAYLOAD,2024-07-20 13:07:26,14.98338316,0.0003353,69.9997,250.1271,269.8148,90.2627,0.00022738,2.622e-05,0.0,0 STARLINK-5502,1 55644U 23021S   24202.54683959  .00002622  00000-0  22738-3 0  9998,2 55644  69.9997 250.1271 0003353 269.8148  90.2627 14.98338316 79340,6950.167,96.106,574.363,569.702,0.0
55644.0,STARLINK-5502,PAYLOAD,2024-07-20 21:08:07,14.98332219,0.0003209,70.0,249.2848,267.697,92.3822,0.0001066,1.179e-05,0.0,0 STARLINK-5502,1 55644U 23021S   24202.88064222  .00001179  00000-0  10660-3 0  9998,2 55644  70.0000 249.2848 0003209 267.6970  92.3822 14.98332219 79397,6950.186,96.107,574.281,569.821,0.0
55644.0,STARLINK-5502,PAYLOAD,2024-07-21 05:08:48,14.98329758,0.0003375,69.9986,248.4438,269.0193,91.0579,6.4484e-05,6.76e-06,0.0,0 STARLINK-5502,1 55644U 23021S   24203.21444496  .00000676  00000-0  64484-4 0  9996,2 55644  69.9986 248.4438 0003375 269.0193  91.0579 14.98329758 79142,6950.194,96.107,574.404,569.713,0.0
55644.0,STARLINK-5502,PAYLOAD,2024-07-21 13:09:27,14.98341664,0.0003733,69.9982,247.6021,270.4938,89.5794,0.00017628,2.012e-05,0.0,0 STARLINK-5502,1 55644U 23021S   24203.54823370  .00002012  00000-0  17628-3 0  9997,2 55644  69.9982 247.6021 0003733 270.4938  89.5794 14.98341664 79194,6950.157,96.106,574.616,569.427,0.0
55644.0,STARLINK-5502,PAYLOAD,2024-07-22 05:10:46,14.98360833,0.0003731,69.9986,245.9187,276.9834,83.0901,0.00035157,4.108e-05,0.0,0 STARLINK-5502,1 55644U 23021S   24204.21581037  .00004108  00000-0  35157-3 0  9998,2 55644  69.9986 245.9187 0003731 276.9834  83.0901 14.98360833 79295,6950.098,96.105,574.556,569.369,0.0
55644.0,STARLINK-5502,PAYLOAD,2024-07-22 09:59:12,14.98330623,0.00032,69.9986,245.4131,270.1114,89.9678,-1.9735e-05,-3.29e-06,0.0,0 STARLINK-5502,1 55644U 23021S   24204.41611493 -.00000329  00000-0 -19735-4 0  9998,2 55644  69.9986 245.4131 0003200 270.1114  89.9678 14.98330623 79321,6950.191,96.107,574.28,569.832,0.0
55644.0,STARLINK-5502,PAYLOAD,2024-07-23 13:13:29,14.98329095,0.0002904,69.9992,242.5533,263.5419,96.541,8.1853e-05,8.84e-06,0.0,0 STARLINK-5502,1 55644U 23021S   24205.55103580  .00000884  00000-0  81853-4 0  9991,2 55644  69.9992 242.5533 0002904 263.5419  96.5410 14.98329095 79493,6950.196,96.107,574.079,570.042,0.0
55644.0,STARLINK-5502,PAYLOAD,2024-07-24 10:03:14,14.98349624,0.0002373,69.9991,240.3652,252.8914,107.1985,-0.00065077,-7.853e-05,0.0,0 STARLINK-5502,1 55644U 23021S   24206.41891215 -.00007853  00000-0 -65077-3 0  9990,2 55644  69.9991 240.3652 0002373 252.8914 107.1985 14.98349624 79622,6950.132,96.106,573.646,570.348,0.0
55644.0,STARLINK-5502,PAYLOAD,2024-07-25 05:16:51,14.98321956,0.0003166,69.9979,238.344,266.0683,94.0114,9.3311e-05,1.02e-05,0.0,0 STARLINK-5502,1 55644U 23021S   24207.22004415  .00001020  00000-0  93311-4 0  9999,2 55644  69.9979 238.3440 0003166 266.0683  94.0114 14.98321956 79740,6950.218,96.108,574.283,569.882,0.0
55644.0,STARLINK-5502,PAYLOAD,2024-07-25 06:52:59,14.98322246,0.0003054,69.9981,238.1756,263.1334,96.9477,9.8004e-05,1.076e-05,0.0,0 STARLINK-5502,1 55644U 23021S   24207.28680435  .00001076  00000-0  98004-4 0  9992,2 55644  69.9981 238.1756 0003054 263.1334  96.9477 14.98322246 80050,6950.217,96.107,574.204,569.959,0.0
55644.0,STARLINK-5502,PAYLOAD,2024-07-25 10:05:16,14.98322484,0.0002895,69.9986,237.8395,256.9267,103.1569,0.00010871,1.204e-05,0.0,0 STARLINK-5502,1 55644U 23021S   24207.42032471  .00001204  00000-0  10871-3 0  9997,2 55644  69.9986 237.8395 0002895 256.9267 103.1569 14.98322484 80076,6950.216,96.107,574.093,570.069,0.0
55644.0,STARLINK-5502,PAYLOAD,2024-07-26 05:18:52,14.98324699,0.0003183,69.9978,235.819,266.8681,93.2114,0.00020311,2.331e-05,0.0,0 STARLINK-5502,1 55644U 23021S   24208.22144496  .00002331  00000-0  20311-3 0  9999,2 55644  69.9978 235.8190 0003183 266.8681  93.2114 14.98324699 79892,6950.209,96.107,574.287,569.862,0.0
55644.0,STARLINK-5502,PAYLOAD,2024-07-26 10:07:16,14.98328213,0.0003176,69.9978,235.3137,266.6595,93.4201,0.00022225,2.56e-05,0.0,0 STARLINK-5502,1 55644U 23021S   24208.42172388  .00002560  00000-0  22225-3 0  9992,2 55644  69.9978 235.3137 0003176 266.6595  93.4201 14.98328213 80226,6950.198,96.107,574.271,569.856,0.0
55644.0,STARLINK-5502,PAYLOAD,2024-07-26 19:44:05,14.98332408,0.0003163,69.9978,234.3038,266.7909,93.2889,0.00022684,2.615e-05,0.0,0 STARLINK-5502,1 55644U 23021S   24208.82228177  .00002615  00000-0  22684-3 0  9994,2 55644  69.9978 234.3038 0003163 266.7909  93.2889 14.98332408 80288,6950.185,96.107,574.249,569.852,0.0
55644.0,STARLINK-5502,PAYLOAD,2024-07-27 05:20:53,14.98337053,0.0003178,69.9977,233.2938,266.8545,93.2251,0.00021794,2.509e-05,0.0,0 STARLINK-5502,1 55644U 23021S   24209.22283906  .00002509  00000-0  21794-3 0  9993,2 55644  69.9977 233.2938 0003178 266.8545  93.2251 14.98337053 80045,6950.171,96.107,574.245,569.827,0.0
55644.0,STARLINK-5502,PAYLOAD,2024-07-27 10:09:17,14.98340679,0.000316,69.9989,232.7887,267.3724,92.7074,0.00027527,3.194e-05,0.0,0 STARLINK-5502,1 55644U 23021S   24209.42311843  .00003194  00000-0  27527-3 0  9998,2 55644  69.9989 232.7887 0003160 267.3724  92.7074 14.98340679 80372,6950.16,96.106,574.221,569.829,0.0
55644.0,STARLINK-5502,PAYLOAD,2024-07-28 05:22:54,14.98335051,0.0003087,69.9989,230.7685,267.3465,92.734,4.6088e-05,4.57e-06,0.0,0 STARLINK-5502,1 55644U 23021S   24210.22423824  .00000457  00000-0  46088-4 0  9994,2 55644  69.9989 230.7685 0003087 267.3465  92.7340 14.98335051 80190,6950.177,96.107,574.188,569.897,0.0
55644.0,STARLINK-5502,PAYLOAD,2024-07-28 11:47:26,14.98334978,0.0003131,69.9976,230.0956,267.4515,92.6285,7.5911e-05,8.13e-06,0.0,0 STARLINK-5502,1 55644U 23021S   24210.49127953  .00000813  00000-0  75911-4 0  9990,2 55644  69.9976 230.0956 0003131 267.4515  92.6285 14.98334978 80539,6950.177,96.107,574.219,569.866,0.0
55644.0,STARLINK-5502,PAYLOAD,2024-07-29 05:24:55,14.9833528,0.0003085,69.9977,228.2439,267.471,92.6095,-9.2456e-07,-1.04e-06,0.0,0 STARLINK-5502,1 55644U 23021S   24211.22563871 -.00000104  00000-0 -92456-6 0  9995,2 55644  69.9977 228.2439 0003085 267.4710  92.6095 14.98335280 80345,6950.177,96.107,574.186,569.897,0.0
55644.0,STARLINK-5502,PAYLOAD,2024-07-29 10:13:19,14.98333728,0.0002969,69.9981,227.7401,262.0461,98.0361,-1.1694e-05,-2.33e-06,0.0,0 STARLINK-5502,1 55644U 23021S   24211.42591874 -.00000233  00000-0 -11694-4 0  9997,2 55644  69.9981 227.7401 0002969 262.0461  98.0361 14.98333728 80674,6950.181,96.107,574.11,569.983,0.0
55644.0,STARLINK-5502,PAYLOAD,2024-07-30 05:26:55,14.98332356,0.0003046,69.998,225.7197,264.4722,95.609,8.1672e-05,8.82e-06,0.0,0 STARLINK-5502,1 55644U 23021S   24212.22703674  .00000882  00000-0  81672-4 0  9990,2 55644  69.9980 225.7197 0003046 264.4722  95.6090 14.98332356 80494,6950.186,96.107,574.168,569.934,0.0
55644.0,STARLINK-5502,PAYLOAD,2024-07-30 10:15:20,14.9833296,0.0003117,69.9978,225.2139,268.2615,91.8187,7.992e-05,8.61e-06,0.0,0 STARLINK-5502,1 55644U 23021S   24212.42731637  .00000861  00000-0  79920-4 0  9992,2 55644  69.9978 225.2139 0003117 268.2615  91.8187 14.98332960 80827,6950.184,96.107,574.215,569.882,0.0
55644.0,STARLINK-5502,PAYLOAD,2024-07-30 18:16:00,14.98332361,0.0003152,69.9978,224.372,269.1939,90.8859,7.863e-05,8.45e-06,0.0,0 STARLINK-5502,1 55644U 23021S   24212.76111657  .00000845  00000-0  78630-4 0  9992,2 55644  69.9978 224.3720 0003152 269.1939  90.8859 14.98332361 80876,6950.186,96.107,574.241,569.86,0.0
55644.0,STARLINK-5502,PAYLOAD,2024-07-31 10:17:21,14.98330959,0.0003121,69.9978,222.6894,269.7819,90.2982,6.7866e-05,7.17e-06,0.0,0 STARLINK-5502,1 55644U 23021S   24213.42871810  .00000717  00000-0  67866-4 0  9997,2 55644  69.9978 222.6894 0003121 269.7819  90.2982 14.98330959 80971,6950.19,96.107,574.224,569.886,0.0
55644.0,STARLINK-5502,PAYLOAD,2024-07-31 18:18:01,14.98332145,0.0003144,69.9977,221.8473,269.7246,90.3553,7.0345e-05,7.46e-06,0.0,0 STARLINK-5502,1 55644U 23021S   24213.76251684  .00000746  00000-0  70345-4 0  9993,2 55644  69.9977 221.8473 0003144 269.7246  90.3553 14.98332145 81024,6950.186,96.107,574.236,569.866,0.0
55644.0,STARLINK-5502,PAYLOAD,2024-08-01 05:30:57,14.98335825,0.0003173,69.9977,220.6689,269.6441,90.4355,9.1583e-05,1e-05,0.0,0 STARLINK-5502,1 55644U 23021S   24214.22983326  .00001000  00000-0  91583-4 0  9991,2 55644  69.9977 220.6689 0003173 269.6441  90.4355 14.98335825 80790,6950.175,96.107,574.245,569.835,0.0
